{"fetched_at":"2026-07-15T06:36:24.157Z","source":"https://celestrak.org/NORAD/elements/gp.php?NAME=SENTINEL&FORMAT=JSON","constellation":"sentinel-3","records":[{"OBJECT_NAME":"SENTINEL-3A","OBJECT_ID":"2016-011A","EPOCH":"2026-07-14T22:01:42.895776","CLASSIFICATION_TYPE":"U","MEAN_MOTION":14.26739702,"ECCENTRICITY":0.00013637,"INCLINATION":98.6238,"RA_OF_ASC_NODE":262.9014,"ARG_OF_PERICENTER":89.9821,"MEAN_ANOMALY":270.1516,"EPHEMERIS_TYPE":0,"NORAD_CAT_ID":41335,"ELEMENT_SET_NO":999,"REV_AT_EPOCH":54201,"BSTAR":0.000035579318,"MEAN_MOTION_DOT":4.2e-7,"MEAN_MOTION_DDOT":0},{"OBJECT_NAME":"SENTINEL-3B","OBJECT_ID":"2018-039A","EPOCH":"2026-07-14T19:42:03.001248","CLASSIFICATION_TYPE":"U","MEAN_MOTION":14.26736193,"ECCENTRICITY":0.00011351,"INCLINATION":98.6236,"RA_OF_ASC_NODE":262.9549,"ARG_OF_PERICENTER":119.3796,"MEAN_ANOMALY":240.7498,"EPHEMERIS_TYPE":0,"NORAD_CAT_ID":43437,"ELEMENT_SET_NO":999,"REV_AT_EPOCH":42806,"BSTAR":0.000031776681,"MEAN_MOTION_DOT":3.3e-7,"MEAN_MOTION_DDOT":0}]}
